sample-id	rindtype	style	name	continent	country	region	longitude	latitude	ph	salt	moisture	animal_source	pasteurized
#q2:types	categorical	categorical	categorical	categorical	categorical	categorical	numeric	numeric	categorical	categorical	categorical	categorical	categorical
11488.CSB279	natural	NA	Bethlehem	North_America	USA	Connecticut	-73.210236	41.611893	6.95	0.044293775	33.33333333	cow	N
11488.CSB280	natural	NA	Bethlehem	North_America	USA	Connecticut	-73.210236	41.611893	6.55	0.045997737	34.80519481	cow	N
11488.CSB281	natural	NA	Bethlehem	North_America	USA	Connecticut	-73.210236	41.611893	6.54	0.068926154	31.33333333	cow	N
11488.CSB282	natural	NA	Bethlehem	North_America	USA	Connecticut	-73.210236	41.611893	6.55	0.030862483	34.90566038	cow	N
11488.CSB290	washed	alpine	Pleasant_Ridge_Reserve	North_America	USA	Wisconsin	-90.136253	43.054545	6.29	0.220927133	18.88111888	cow	N
11488.CSB291	washed	alpine	Pleasant_Ridge_Reserve	North_America	USA	Wisconsin	-90.136253	43.054545	6.15	0.300428558	18.04123711	cow	N
11488.CSB292	washed	alpine	Pleasant_Ridge_Reserve	North_America	USA	Wisconsin	-90.136253	43.054545	6.1	0.0850591	22.89156627	cow	N
11488.CSB299	bloomy	NA	Cosne_de_Port_Aubry	Europe	France	Centre	2.907705	47.389123	6.33	0.286382511	33.91089109	goat	N
11488.CSB300	bloomy	NA	Cosne_de_Port_Aubry	Europe	France	Centre	2.907705	47.389123	6.76	0.178213553	25.35211268	goat	N
11488.CSB301	bloomy	NA	Cosne_de_Port_Aubry	Europe	France	Centre	2.907705	47.389123	6.37	0.134602767	47.56838906	goat	N
11488.CSB302	natural	NA	Fromage_du_Maquis	Europe	France	Corsica	9.01289	42.0396	7.08	0.085097163	47.64011799	sheep	Y
11488.CSB303	natural	NA	Fromage_du_Maquis	Europe	France	Corsica	9.01289	42.0396	6.7	0.092828815	46.77419355	sheep	Y
11488.CSB304	natural	NA	Fromage_du_Maquis	Europe	France	Corsica	9.01289	42.0396	7.48	0.073228464	27.72861357	sheep	Y
11488.CSB305	natural	NA	Lavort_Brebis	Europe	France	Auvergne	3.486423	46.008276	6.9	0.153357695	18.79699248	sheep	N
11488.CSB306	natural	NA	Lavort_Brebis	Europe	France	Auvergne	3.486423	46.008276	7.08	0.179628052	29.74137931	sheep	N
11488.CSB307	natural	NA	Lavort_Brebis	Europe	France	Auvergne	3.486423	46.008276	6.96	0.166631299	26.4516129	sheep	N
11488.CSB308	bloomy	NA	Maconnais	Europe	France	Bourgogne	4.828731	46.306884	6.12	0.480657935	22.22222222	goat	N
11488.CSB309	bloomy	NA	Maconnais	Europe	France	Bourgogne	4.828731	46.306884	5.95	0.451199575	23.48484848	goat	N
11488.CSB310	bloomy	NA	Maconnais	Europe	France	Bourgogne	4.828731	46.306884	6.08	0.526405665	26.47058824	goat	N
11488.CSB312	washed	NA	Chevrotin_des_Aravis	Europe	France	Savoie	6.539931	46.013352	8.06	0.137289575	44.71153846	goat	N
11488.CSB313	washed	NA	Chevrotin_des_Aravis	Europe	France	Savoie	6.539931	46.013352	7.63	0.169286934	56.12244898	goat	N
11488.CSB314	washed	washed_bloomy	Langres	Europe	France	Burgundy-Champagne	6.773163	47.949477	6.49	0.180339505	58.61875351	cow	N
11488.CSB315	washed	washed_bloomy	Langres	Europe	France	Burgundy-Champagne	6.773163	47.949477	6.48	0.192874593	53.78927911	cow	N
11488.CSB316	washed	washed_bloomy	Langres	Europe	France	Burgundy-Champagne	6.773163	47.949477	6.47	0.192113688	58.53899309	cow	N
11488.CSB317	bloomy	NA	Tarentais	Europe	France	Savoie	6.874525	45.590996	6.58	0.322439273	37.5	goat	N
11488.CSB318	bloomy	NA	Tarentais	Europe	France	Savoie	6.874525	45.590996	6.56	0.23042372	38.81748072	goat	N
11488.CSB319	bloomy	NA	Tarentais	Europe	France	Savoie	6.874525	45.590996	6.56	0.266713887	31.44508671	goat	N
11488.CSB320	bloomy	NA	Camembert_de_Normandie	Europe	France	Normandy	-1.530385	49.2178	6.35	0.19060087	56.09756098	cow	N
11488.CSB321	bloomy	NA	Camembert_de_Normandie	Europe	France	Normandy	-1.530385	49.2178	6.62	0.189099966	58.12807882	cow	N
11488.CSB322	bloomy	NA	Camembert_de_Normandie	Europe	France	Normandy	-1.530385	49.2178	6.31	0.172666073	62.54681648	cow	N
11488.CSB323	washed	alpine	Beaufort_Alpage	Europe	France	Savoie	6.4724	45.4932	7.08	0.104061951	23.80952381	cow	N
11488.CSB324	washed	alpine	Beaufort_Alpage	Europe	France	Savoie	6.4724	45.4932	7.08	0.108771129	24.71910112	cow	N
11488.CSB325	washed	alpine	Beaufort_Alpage	Europe	France	Savoie	6.4724	45.4932	7.01	0.088734793	30.95238095	cow	N
11488.CSB326	bloomy	NA	Gaperon	Europe	France	Auvergne	3.34485	45.70327	7.44	0.064520525	57.5	cow	Y
11488.CSB327	bloomy	NA	Gaperon	Europe	France	Auvergne	3.34485	45.70327	7.22	0.087952787	50.33783784	cow	Y
11488.CSB328	bloomy	NA	Gaperon	Europe	France	Auvergne	3.34485	45.70327	7.25	0.070804915	53.09278351	cow	Y
11488.CSB329	bloomy	NA	Gour_Noir	Europe	France	NA	2.165652	45.293574	6.31	0.136919825	52.35259083	goat	N
11488.CSB330	bloomy	NA	Gour_Noir	Europe	France	NA	2.165652	45.293574	6.28	0.150256009	51.78571429	goat	N
11488.CSB331	bloomy	NA	Gour_Noir	Europe	France	NA	2.165652	45.293574	6.35	0.133923102	48.06866953	goat	N
11488.CSB332	washed	NA	Durrus	Europe	Ireland	Co._Cork	-9.527764	51.643696	8.28	0.094407018	45.94594595	cow	Y
11488.CSB333	washed	NA	Durrus	Europe	Ireland	Co._Cork	-9.527764	51.643696	7.41	0.115213086	42.80442804	cow	Y
11488.CSB334	washed	NA	Durrus	Europe	Ireland	Co._Cork	-9.527764	51.643696	7.62	0.147619313	51.10701107	cow	Y
11488.CSB335	washed	NA	Milleens	Europe	Ireland	Co._Cork	-9.9572	51.677015	6.91	0.200342332	141.5831663	cow	Y
11488.CSB336	washed	NA	Milleens	Europe	Ireland	Co._Cork	-9.9572	51.677015	6.67	0.164162968	56.55172414	cow	Y
11488.CSB337	washed	NA	Milleens	Europe	Ireland	Co._Cork	-9.9572	51.677015	6.71	0.135713172	55.75221239	cow	Y
11488.CSB338	washed	alpine	Comte	Europe	France	Doubs_county	5.928718	46.459832	7.15	0.143115941	26.41509434	cow	N
11488.CSB339	washed	alpine	Comte	Europe	France	Doubs_county	5.928718	46.459832	6.97	0.152264392	24.13793103	cow	N
11488.CSB340	washed	alpine	Comte	Europe	France	Doubs_county	5.928718	46.459832	7.36	0.119895068	26.90721649	cow	N
11488.CSB341	natural	NA	Majorero	Europe	Spain	Canary_Islands	-14.053676	28.358744	6.84	0.294443032	12.09677419	goat	N
11488.CSB342	natural	NA	Majorero	Europe	Spain	Canary_Islands	-14.053676	28.358744	6.75	0.234947457	16.38888889	goat	N
11488.CSB420	bloomy	NA	Rubine	Europe	Italy	Gelati	8.44053	44.55247	6.81	0.043629574	50.64935065	goat	N
11488.CSB343	natural	NA	Majorero	Europe	Spain	Canary_Islands	-14.053676	28.358744	6.66	0.238087859	19.84126984	goat	N
11488.CSB344	natural	NA	Queso_Divinri	Europe	Spain	Cantabria	-3.987843	43.18284	6.4	0.116753071	10.21505376	cow	Y
11488.CSB345	natural	NA	Queso_Divinri	Europe	Spain	Cantabria	-3.987843	43.18284	6.63	0.140604539	23.27365729	cow	Y
11488.CSB353B	natural	clothbound	Westcombe_Cheddar	Europe	England	Somerset	-2.50513	51.148123	6.43	0.15343975	15.04065041	cow	N
11488.CSB354	natural	clothbound	Westcombe_Cheddar	Europe	England	Somerset	-2.50513	51.148123	5.86	0.177697649	9.090909091	cow	N
11488.CSB357	natural	clothbound	Quicke_s_Cheddar	Europe	England	Somerset	-3.583268	50.777112	5.2	0.202049373	8.045977011	cow	N
11488.CSB358	natural	clothbound	Quicke_s_Cheddar	Europe	England	Somerset	-3.583268	50.777112	5.25	0.208641869	19.24398625	cow	N
11488.CSB360	natural	blue	Colston-Basset_Stilton	Europe	England	Nottinghamshire	-0.959312	52.89195	7.39	0.321106339	17.9245283	cow	Y
11488.CSB361	natural	blue	Colston-Basset_Stilton	Europe	England	Nottinghamshire	-0.959312	52.89195	7.56	0.268510406	36.8902439	cow	Y
11488.CSB362	natural	blue	Colston-Basset_Stilton	Europe	England	Nottinghamshire	-0.959312	52.89195	7.4	0.218434585	37.14710253	cow	Y
11488.CSB363	natural	blue	Stichelton	Europe	England	Nottinghamshire	-1.175304	53.241334	7.32	0.297019515	32.49427918	cow	N
11488.CSB364	natural	blue	Stichelton	Europe	England	Nottinghamshire	-1.175304	53.241334	7.51	0.216439945	36.79245283	cow	N
11488.CSB365	natural	blue	Stichelton	Europe	England	Nottinghamshire	-1.175304	53.241334	7.5	0.221461065	37.16475096	cow	N
11488.CSB366	natural	NA	Cornish_Yarg	Europe	England	Cornwall	-5.158213	50.206254	7.26	0.147234619	35.79545455	cow	Y
11488.CSB367	natural	NA	Cornish_Yarg	Europe	England	Cornwall	-5.158213	50.206254	7.07	0.158446204	50.28248588	cow	Y
11488.CSB368	natural	NA	Cornish_Yarg	Europe	England	Cornwall	-5.158213	50.206254	7.22	0.124673175	NA	cow	Y
11488.CSB369	washed	NA	St._James	Europe	England	Cumbria	-2.980925	54.186256	7.7	0.203328195	36.73469388	sheep	N
11488.CSB370	washed	NA	St._James	Europe	England	Cumbria	-2.980925	54.186256	7.8	0.147823096	52.50737463	sheep	N
11488.CSB371	washed	NA	St._James	Europe	England	Cumbria	-2.980925	54.186256	7.9	0.177583052	50.19011407	sheep	N
11488.CSB372	washed	NA	Cardo	Europe	England	Somerset	-2.487328	51.33102	7.33	0.151086456	56.31067961	goat	N
11488.CSB373	washed	NA	Cardo	Europe	England	Somerset	-2.487328	51.33102	7.52	0.087910585	33.66013072	goat	N
11488.CSB374	washed	NA	Cardo	Europe	England	Somerset	-2.487328	51.33102	7.45	0.212404682	37.56476684	goat	N
11488.CSB376	bloomy	NA	Tymsboro	Europe	England	Somerset	-2.487328	51.33102	6.55	0.164157923	50.12468828	goat	N
11488.CSB378	bloomy	NA	Stawley	Europe	England	Somerset	-3.334107	50.98873	6.56	0.121448773	58.51851852	goat	N
11488.CSB379	bloomy	NA	Stawley	Europe	England	Somerset	-3.334107	50.98873	6.51	0.116259018	62.55319149	goat	N
11488.CSB380	bloomy	NA	Stawley	Europe	England	Somerset	-3.334107	50.98873	6.54	0.102429217	58.62068966	goat	N
11488.CSB381	bloomy	NA	Innes_log	Europe	England	Staffordshire	-1.644947	52.675032	6.54	0.121448773	52.69461078	goat	N
11488.CSB382	bloomy	NA	Innes_log	Europe	England	Staffordshire	-1.644947	52.675032	6.61	0.126317337	52.4822695	goat	N
11488.CSB383	bloomy	NA	Innes_log	Europe	England	Staffordshire	-1.644947	52.675032	6.74	0.125766888	50.86705202	goat	N
11488.CSB384	bloomy	NA	Red_Brick	Europe	England	Staffordshire	-1.644947	52.675032	6.24	0.149119895	55.98802395	goat	N
11488.CSB385	bloomy	NA	Red_Brick	Europe	England	Staffordshire	-1.644947	52.675032	6.29	0.138449877	54.83193277	goat	N
11488.CSB386	bloomy	NA	Red_Brick	Europe	England	Staffordshire	-1.644947	52.675032	6.01	0.104690457	11.85410334	goat	N
11488.CSB387	natural	NA	Berkswell	Europe	England	West_Midlands	-1.638794	52.401872	6.06	0.126870196	10.58201058	sheep	N
11488.CSB388	natural	NA	Berkswell	Europe	England	West_Midlands	-1.638794	52.401872	6.17	0.152411884	14.16309013	sheep	N
11488.CSB389	natural	NA	Berkswell	Europe	England	West_Midlands	-1.638794	52.401872	5.9	0.181503396	9.302325581	sheep	N
11488.CSB390	natural	blue	Bleu_de_Termingnon	Europe	France	Savoie	6.817117	45.276599	7.98	0.187956756	40	cow	N
11488.CSB391	natural	blue	Bleu_de_Termingnon	Europe	France	Savoie	6.817117	45.276599	7.96	0.235875938	46.875	cow	N
11488.CSB392	natural	blue	Bleu_de_Termingnon	Europe	France	Savoie	6.817117	45.276599	7.74	0.194506348	37.39130435	cow	N
11488.CSB393	washed	NA	St._Saveur	Europe	France	Pyrenees	-0.40545	43.040632	8.49	0.125730661	46.93877551	sheep	Y
11488.CSB394	washed	NA	St._Saveur	Europe	France	Pyrenees	-0.40545	43.040632	8	0.138266449	55.44041451	sheep	Y
11488.CSB395	washed	NA	St._Saveur	Europe	France	Pyrenees	-0.40545	43.040632	8.04	0.132993781	55.09259259	sheep	Y
11488.CSB405	bloomy	NA	Pelardon	Europe	France	Languedoc-Roussillon	3.258363	43.591236	6.9	0.243497393	24.12280702	goat	N
11488.CSB406	bloomy	NA	Pelardon	Europe	France	Languedoc-Roussillon	3.258363	43.591236	6.83	0.17234599	23.11827957	goat	N
11488.CSB407	bloomy	NA	Pelardon	Europe	France	Languedoc-Roussillon	3.258363	43.591236	6.83	0.179178815	18.85245902	goat	N
11488.CSB408	natural	NA	Montebore	Europe	France	Montebore	9.04895	44.65056	8.08	0.031555035	62.05787781	cow_sheep	N
11488.CSB409	natural	NA	Montebore	Europe	France	Montebore	9.04895	44.65056	6.62	0.069868734	11.6751269	cow_sheep	N
11488.CSB410	natural	NA	Montebore	Europe	France	Montebore	9.04895	44.65056	7.48	0.060064398	41.94630872	cow_sheep	N
11488.CSB411	washed	NA	Taleggio	Europe	Italy	Orobian_Mountains	10.00443	45.97311	8	0.103517509	57.09876543	cow	N
11488.CSB412	washed	NA	Taleggio	Europe	Italy	Orobian_Mountains	10.00443	45.97311	8	0.183883874	49.18032787	cow	N
11488.CSB413	washed	NA	Taleggio	Europe	Italy	Orobian_Mountains	10.00443	45.97311	8.11	0.100868793	57.58513932	cow	N
11488.CSB416	washed	NA	Stracchino	Europe	Italy	Orobian_Mountains	10.00443	45.97311	7.22	0.100001036	47.82608696	cow	N
11488.CSB417	natural	NA	Stachitunt	Europe	Italy	Orobian_Mountains	10.00443	45.97311	7.22	0.089376682	36.25	cow	N
11488.CSB418	natural	NA	Stachitunt	Europe	Italy	Orobian_Mountains	10.00443	45.97311	7.7	0.092120732	32.35294118	cow	N
11488.CSB419	natural	NA	Stachitunt	Europe	Italy	Orobian_Mountains	10.00443	45.97311	8.05	0.090934542	55.12195122	cow	N
11488.CSB422	bloomy	NA	Rubine	Europe	Italy	Gelati	8.44053	44.55247	6.46	0.052991763	32.80254777	goat	N
11488.CSB423	washed	NA	Forsterkase	Europe	Switzerland	Krammenaer	9.05574	47.60379	5.96	0.144370497	48.51485149	cow	N
11488.CSB424	washed	NA	Forsterkase	Europe	Switzerland	Krammenaer	9.05574	47.60379	7.19	0.080923089	52.23880597	cow	N
11488.CSB425	washed	NA	Forsterkase	Europe	Switzerland	Krammenaer	9.05574	47.60379	6.05	0.154035533	44.13793103	cow	N
11488.CSB426	washed	NA	Schnebel_Geiss	Europe	Switzerland	NA	9.14884	47.2801	6.26	0.147522843	36.82539683	goat	N
11488.CSB427	washed	NA	Schnebel_Geiss	Europe	Switzerland	NA	9.14884	47.2801	6.29	0.123043982	37.29372937	goat	N
11488.CSB428	washed	NA	Schnebel_Geiss	Europe	Switzerland	NA	9.14884	47.2801	6.91	0.140070056	36.9047619	goat	N
11488.CSB429	natural	NA	Mascarplin_Bio	Europe	Switzerland	NA	9.57803	46.65699	6.37	0.231196016	51.02040816	goat	Y
11488.CSB430	natural	NA	Mascarplin_Bio	Europe	Switzerland	NA	9.57803	46.65699	6.17	0.162231388	51.98675497	goat	Y
11488.CSB431	natural	NA	Mascarplin_Bio	Europe	Switzerland	NA	9.57803	46.65699	6.55	0.149447194	48.42767296	goat	Y
11488.CSB432	washed	alpine	Vacherin_Rustique_Aop	Europe	Switzerland	NA	7.11726	46.68167	7.58	0.101305492	39.16083916	cow	N
11488.CSB433	washed	alpine	Vacherin_Rustique_Aop	Europe	Switzerland	NA	7.11726	46.68167	7.45	0.177637369	31.15942029	cow	N
11488.CSB434	washed	alpine	Vacherin_Rustique_Aop	Europe	Switzerland	NA	7.11726	46.68167	7.08	0.17234599	33.46153846	cow	N
11488.CSB438	washed	NA	Roter_Brutssch	Europe	Switzerland	Emmentaler	7.7895	46.93998	7.38	0.102184569	42.47104247	cow	N
11488.CSB439	washed	NA	Roter_Brutssch	Europe	Switzerland	Emmentaler	7.7895	46.93998	6.67	0.137076966	37.71186441	cow	N
11488.CSB440	washed	NA	Roter_Brutssch	Europe	Switzerland	Emmentaler	7.7895	46.93998	6.69	0.160835738	40.93959732	cow	N
11488.CSB441	natural	NA	Sburrato	Europe	Italy	Castel_San_Gimignano	11.02136	43.40475	7.41	0.103517509	36.77130045	sheep	N
11488.CSB607	bloomy	NA	Harbison	North_America	USA	Vermont	-72.268324	44.587655	6.94	0.053100998	62.24489796	cow	Y
11488.CSB442	natural	NA	Sburrato	Europe	Italy	Castel_San_Gimignano	11.02136	43.40475	7.26	0.070171221	45.2173913	sheep	N
11488.CSB443	natural	NA	Sburrato	Europe	Italy	Castel_San_Gimignano	11.02136	43.40475	6.6	0.062176524	37.5	sheep	N
11488.CSB447	natural	NA	Tomme_de_Savoie	Europe	France	Manigod	6.36914	45.86122	6.52	0.112859233	45.61403509	cow	N
11488.CSB448	natural	NA	Tomme_de_Savoie	Europe	France	Manigod	6.36914	45.86122	6.26	0.110925766	49.25373134	cow	N
11488.CSB449	natural	NA	Tomme_de_Savoie	Europe	France	Manigod	6.36914	45.86122	7	0.048395939	47.72727273	cow	N
11488.CSB450	washed	NA	Reblochon_de_Savoie	Europe	France	Manigod	6.36914	45.86122	8.28	0.035766581	57.54716981	cow	N
11488.CSB451	washed	NA	Reblochon_de_Savoie	Europe	France	Manigod	6.36914	45.86122	7.57	0.074868908	58.00865801	cow	N
11488.CSB452	washed	NA	Reblochon_de_Savoie	Europe	France	Manigod	6.36914	45.86122	7.13	0.092120732	57.46268657	cow	N
11488.CSB453	natural	NA	Fujot_d_crava	Europe	Italy	Cavallermaggiore	7.70909	44.71192	7.64	0.119378805	35.71428571	goat	N
11488.CSB454	natural	NA	Fujot_d_crava	Europe	Italy	Cavallermaggiore	7.70909	44.71192	7.03	0.111406005	43.92523364	goat	N
11488.CSB455	natural	NA	Fujot_d_crava	Europe	Italy	Cavallermaggiore	7.70909	44.71192	7.55	0.161532056	36.28318584	goat	N
11488.CSB456	natural	NA	La_Fuma_Blu_di_Capra	Europe	Italy	Via_Franca	7.482631	44.801654	7.64	0.157398915	50.85714286	goat	N
11488.CSB457	natural	NA	La_Fuma_Blu_di_Capra	Europe	Italy	Via_Franca	7.482631	44.801654	7.88	0.235225827	36.64122137	goat	N
11488.CSB458	natural	NA	Tre_Latti_Alto	Europe	Italy	Via_Franca	7.482631	44.801654	6.51	0.286938323	22.4137931	sheep	N
11488.CSB459	natural	NA	Tre_Latti_Alto	Europe	Italy	Via_Franca	7.482631	44.801654	6.1	0.328057253	25.67567568	sheep	N
11488.CSB460	washed	alpine	Jennifer_s_cheese-_no_starter	Europe	England	London	-0.11982	51.51121	7.04	0.336671713	43.79310345	cow	N
11488.CSB461	washed	alpine	Jennifer_s_cheese-_no_starter	Europe	England	London	-0.11982	51.51121	7.8	0.329477535	35.18518519	cow	N
11488.CSB462	washed	alpine	Jennifer_s_cheese-_with_starter	Europe	England	London	-0.11982	51.51121	7.84	0.252059825	40	cow	N
11488.CSB608	bloomy	NA	Harbison	North_America	USA	Vermont	-72.268324	44.587655	7.31	0.045329555	63.70192308	cow	Y
11488.CSB463	washed	alpine	Jennifer_s_cheese-_with_starter	Europe	England	London	-0.11982	51.51121	7.94	0.449686271	42.85714286	cow	N
11488.CSB466	bloomy	NA	Dzorette	Europe	Switzerland	NA	8.22751	46.81819	7.94	0.042697275	61.53846154	cow	N
11488.CSB467	washed	alpine	Emmentaler	Europe	Switzerland	Emmentaler	7.7895	46.93998	5.89	0.159452094	22.14285714	cow	N
11488.CSB467B	washed	alpine	Emmentaler	Europe	Switzerland	Emmentaler	7.7895	46.93998	6.06	0.179954547	25.22522523	cow	N
11488.CSB468	bloomy	NA	Bartassac_cheese_1	Europe	France	Landiras	-0.41517	44.56683	5.2	0.555701633	20.27027027	cow	N
11488.CSB469	bloomy	NA	Bartassac_cheese_1	Europe	France	Landiras	-0.41517	44.56683	5.34	0.426968326	22.02643172	cow	N
11488.CSB470	bloomy	NA	Bartassac_cheese_1	Europe	France	Landiras	-0.41517	44.56683	5.22	0.823327483	22.29437229	cow	N
11488.CSB489	natural	blue	Bayley_Hazen_Blue	North_America	USA	Vermont	-72.268324	44.587655	6.88	0.051236071	34.12322275	cow	N
11488.CSB490	natural	blue	Bayley_Hazen_Blue	North_America	USA	Vermont	-72.268324	44.587655	6.82	0.058947716	36.42756681	cow	N
11488.CSB491	natural	blue	Bayley_Hazen_Blue	North_America	USA	Vermont	-72.268324	44.587655	6.69	0.044293775	33.00395257	cow	N
11488.CSB516	natural	NA	Landaff	North_America	USA	New_Hampshire	-71.887419	44.175221	7.5	0.166006377	42.5295858	cow	N
11488.CSB517	natural	NA	Landaff	North_America	USA	New_Hampshire	-71.887419	44.175221	7.59	0.080160264	40.81455806	cow	N
11488.CSB518	natural	NA	Landaff	North_America	USA	New_Hampshire	-71.887419	44.175221	7.52	0.097861516	43.55758267	cow	N
11488.CSB538	washed	alpine	Ascutney_Mountain	North_America	USA	Vermont	-72.39893	43.54064	6.96	0.04879674	44.71544715	cow	N
11488.CSB539	washed	alpine	Ascutney_Mountain	North_America	USA	Vermont	-72.39893	43.54064	6.87	0.054650168	34.55978975	cow	N
11488.CSB543	washed	washed_bloomy	Harbison__1x_washed_	North_America	USA	Vermont	-72.268324	44.587655	NA	NA	NA	cow	Y
11488.CSB544	washed	washed_bloomy	Harbison__1x_washed_	North_America	USA	Vermont	-72.268324	44.587655	6.96	0.072542618	55.29411765	cow	Y
11488.CSB545	washed	washed_bloomy	Harbison__1x_washed_	North_America	USA	Vermont	-72.268324	44.587655	6.82	0.099621976	NA	cow	Y
11488.CSB552	washed	NA	Twig_washed_wheel	North_America	USA	Vermont	-73.23456	43.94367	7.54	0.061553425	66.15475487	cow_goat	N
11488.CSB553	washed	NA	Twig_washed_wheel	North_America	USA	Vermont	-73.23456	43.94367	7.42	0.071725429	66.9800235	cow_goat	N
11488.CSB554	washed	NA	Twig_washed_wheel	North_America	USA	Vermont	-73.23456	43.94367	7.53	0.107234764	62.64411991	cow_goat	N
11488.CSB555	washed	washed_bloomy	Moses__washed_	North_America	USA	Vermont	-72.268324	44.587655	7.25	0.139944946	62.06278027	cow	Y
11488.CSB556	washed	washed_bloomy	Moses__washed_	North_America	USA	Vermont	-72.268324	44.587655	7.25	0.13758691	NA	cow	Y
11488.CSB557	washed	washed_bloomy	Moses__washed_	North_America	USA	Vermont	-72.268324	44.587655	6.75	0.161234539	61.47757256	cow	Y
11488.CSB573	natural	clothbound	Cabot_Clothbound_Cheddar	North_America	USA	Vermont	-72.3123	44.40139	6.24	0.142343396	18.09256662	cow	Y
11488.CSB574	natural	clothbound	Cabot_Clothbound_Cheddar	North_America	USA	Vermont	-72.3123	44.40139	6.26	0.116744416	19.05737705	cow	Y
11488.CSB575	natural	clothbound	Cabot_Clothbound_Cheddar	North_America	USA	Vermont	-72.3123	44.40139	6.13	0.146432506	16.79644049	cow	Y
11488.CSB576	bloomy	NA	Constant_Bliss	North_America	USA	Vermont	-72.268324	44.587655	6.1	0.116744416	65.22435897	cow	Y
11488.CSB578	bloomy	NA	Constant_Bliss	North_America	USA	Vermont	-72.268324	44.587655	6.28	0.090990196	67.5059952	cow	Y
11488.CSB597	natural	NA	Kinsman	North_America	USA	New_Hampshire	-71.887419	44.175221	7.21	0.165196099	45.19650655	cow	N
11488.CSB598	natural	NA	Kinsman	North_America	USA	New_Hampshire	-71.887419	44.175221	7.46	0.10734793	45.52117264	cow	N
11488.CSB599	natural	NA	Kinsman	North_America	USA	New_Hampshire	-71.887419	44.175221	7.19	0.114611988	45.23809524	cow	N
11488.CSB600	natural	clothbound	Shelburne_Farms_Clothbound_cheddar	North_America	USA	Vermont	-73.22472	44.38972	6.55	0.137974798	27.92321117	cow	N
11488.CSB601	natural	clothbound	Shelburne_Farms_Clothbound_cheddar	North_America	USA	Vermont	-73.22472	44.38972	6.78	0.097838282	31.02310231	cow	N
11488.CSB602	natural	clothbound	Shelburne_Farms_Clothbound_cheddar	North_America	USA	Vermont	-73.22472	44.38972	6.55	0.108525819	30.92224231	cow	N
11488.CSB606	bloomy	NA	Harbison	North_America	USA	Vermont	-72.268324	44.587655	7.46	0.06020128	64.00966184	cow	Y
11488.CSB618	washed	NA	Tobasi	North_America	USA	Massachusetts	-73.20369	42.71202	5.95	0.277409328	67.95774648	cow	N
11488.CSB619	washed	NA	Tobasi	North_America	USA	Massachusetts	-73.20369	42.71202	6.06	0.089171066	42.85714286	cow	N
11488.CSB620	washed	NA	Tobasi	North_America	USA	Massachusetts	-73.20369	42.71202	5.5	0.160750117	44	cow	N
11488.CSB621	natural	NA	Maggie_s_Round	North_America	USA	Massachusetts	-73.20369	42.71202	5.18	0.271420265	27.77777778	cow	N
11488.CSB622	natural	NA	Maggie_s_Round	North_America	USA	Massachusetts	-73.20369	42.71202	5.22	0.288209933	38.36734694	cow	N
11488.CSB623	natural	NA	Maggie_s_Round	North_America	USA	Massachusetts	-73.20369	42.71202	5.44	0.091637334	37.24489796	cow	N
11488.CSB624	washed	washed_bloomy	Red_Hawk	North_America	USA	California	-122.63665	38.23242	7.34	0.081716319	62.22222222	cow	Y
11488.CSB625	washed	washed_bloomy	Red_Hawk	North_America	USA	California	-122.63665	38.23242	7.39	0.082163417	62.04906205	cow	Y
11488.CSB626	washed	washed_bloomy	Red_Hawk	North_America	USA	California	-122.63665	38.23242	7.42	0.086771173	61.70854271	cow	Y
11488.CSB653	bloomy	NA	Cavemaster_little_big	North_America	USA	Vermont	-73.25401	44.16728	5.75	0.092138713	75.42297418	cow	Y
11488.CSB657	bloomy	NA	Valencay	Europe	France	Loire	-0.32997	47.76328	6	0.124387148	55.00821018	goat	Y
11488.CSB658	bloomy	NA	Valencay	Europe	France	Loire	-0.32997	47.76328	6.01	0.113988319	59.07534247	goat	Y
11488.CSB659	bloomy	NA	Valencay	Europe	France	Loire	-0.32997	47.76328	6.15	0.090149506	63.08724832	goat	Y
11488.CSB669	washed	NA	Grayson	North_America	USA	Virginia	-80.92397	36.66124	7.22	0.110316929	51.25495376	cow	N
11488.CSB670	washed	NA	Grayson	North_America	USA	Virginia	-80.92397	36.66124	7.26	0.077376988	43.90243902	cow	N
11488.CSB671	washed	NA	Grayson	North_America	USA	Virginia	-80.92397	36.66124	7.02	0.083064965	47.75132275	cow	N
11488.CSB672	washed	NA	Cavemaster_C-local	North_America	USA	New_York	-73.56178	42.44064	6.98	0.049464841	62.95938104	sheep	Y
11488.CSB673	washed	NA	Cavemaster_C-local	North_America	USA	New_York	-73.56178	42.44064	6.99	0.070908232	65.50764951	sheep	Y
11488.CSB674	washed	NA	Cavemaster_C-local	North_America	USA	New_York	-73.56178	42.44064	6.96	0.066052702	65.26548673	sheep	Y
11488.CSB675	washed	NA	Hooligan	North_America	USA	Connecticut	-72.33201	41.57567	7.35	0.109119601	35.42857143	cow	N
11488.CSB676	washed	NA	Hooligan	North_America	USA	Connecticut	-72.33201	41.57567	7.42	0.129937077	42.1686747	cow	N
11488.CSB677	washed	NA	Hooligan	North_America	USA	Connecticut	-72.33201	41.57567	7.45	0.135734633	42.51152074	cow	N
11488.CSB679	washed	NA	Raclette	Europe	France	Auvergne	3.34485	45.70327	7.75	0.117140976	50.59970015	cow	N
11488.CSB680	washed	NA	Le_Jeune_Artise	Europe	France	NA	-0.678884	46.424745	7.5	0.129937077	40.97633136	goat	N
11488.CSB681	washed	NA	Le_Jeune_Artise	Europe	France	NA	-0.678884	46.424745	7.3	0.105030367	43.93939394	goat	N
11488.CSB682	washed	NA	Le_Jeune_Artise	Europe	France	NA	-0.678884	46.424745	7.13	0.125752002	42.82786885	goat	N
11488.CSB683	washed	NA	Manchester	North_America	USA	Vermont	-72.577841	44.558803	7.5	0.147311325	NA	goat	N
11488.CSB684	washed	NA	Manchester	North_America	USA	Vermont	-72.577841	44.558803	7.71	0.095726025	49.85673352	goat	N
11488.CSB685	washed	NA	Manchester	North_America	USA	Vermont	-72.577841	44.558803	7.44	0.102203648	42.72151899	goat	N
11488.CSB687	washed	alpine	Sharfe_Maxx	Europe	Switzerland	Thurgau	9.055737	47.603786	7.53	0.083064965	40.17391304	cow	N
11488.CSB688	washed	alpine	Sharfe_Maxx	Europe	Switzerland	Thurgau	9.055737	47.603786	7.54	0.120380828	41.54676259	cow	N
11488.CSB693	washed	alpine	Ossau_iraty	Europe	France	Aquitaine	-0.299578	44.700222	7.08	0.124387148	30.0209205	sheep	Y
11488.CSB694	washed	alpine	Ossau_iraty	Europe	France	Aquitaine	-0.299578	44.700222	7.15	0.110920511	31.44475921	sheep	Y
11488.CSB697	washed	alpine	Tomme_Chevre_Aydius	Europe	France	NA	-0.541725	43.001851	7.43	0.117140976	45.32803181	goat	N
11488.CSB699	washed	alpine	Tomme_Chevre_Aydius	Europe	France	NA	-0.541725	43.001851	7.61	0.085829399	42.61168385	goat	N
11488.CSB700	washed	alpine	Gruyere	Europe	Switzerland	Fribourg	7.145568	46.801666	7.23	0.125752002	21.66666667	cow	N
11488.CSB701	washed	alpine	Gruyere	Europe	Switzerland	Fribourg	7.145568	46.801666	7.29	0.119074271	25.47033285	cow	N
11488.CSB702	washed	alpine	Gruyere	Europe	Switzerland	Fribourg	7.145568	46.801666	7.12	0.086299002	23.98042414	cow	N
11488.CSB703	natural	blue	Forme_de_Ambert	Europe	France	Auvergne	3.739308	45.549532	7.02	0.093659371	49.40334129	cow	Y
11488.CSB704	natural	blue	Forme_de_Ambert	Europe	France	Auvergne	3.739308	45.549532	6.96	0.099453005	43.96728016	cow	Y
11488.CSB705	natural	blue	Forme_de_Ambert	Europe	France	Auvergne	3.739308	45.549532	6.8	0.145712477	42.46794872	cow	Y
11488.CSB706	washed	NA	Torta_de_la_Serena	Europe	Spain	Extremadura	-6.237595	38.654491	6.55	0.119074271	26.91552063	sheep	N
11488.CSB707	washed	NA	Torta_de_la_Serena	Europe	Spain	Extremadura	-6.237595	38.654491	6.5	0.079084361	20.2020202	sheep	N
11488.CSB708	washed	NA	Torta_de_la_Serena	Europe	Spain	Extremadura	-6.237595	38.654491	6.2	0.081271654	23.66412214	sheep	N
11488.CSB709	natural	NA	Garroxta	Europe	Spain	Catalunya	2.579248	42.167875	7.42	0.082612961	58.21205821	goat	Y
11488.CSB710	natural	NA	Garroxta	Europe	Spain	Catalunya	2.579248	42.167875	7.16	0.093149717	48.75164258	goat	Y
11488.CSB711	natural	NA	Garroxta	Europe	Spain	Catalunya	2.579248	42.167875	7.24	0.091637334	10.908414	goat	Y
11488.CSB715	natural	NA	San_Andreas	North_America	USA	California	-122.763304	38.083403	7.52	0.10734793	36.54822335	sheep	N
11488.CSB716	natural	NA	San_Andreas	North_America	USA	California	-122.763304	38.083403	7.45	0.079517059	36.89138577	sheep	N
11488.CSB717	natural	NA	San_Andreas	North_America	USA	California	-122.763304	38.083403	7.32	0.111527395	11.30247578	sheep	N
11488.CSB718	natural	blue	Lively_Run_Cayuga_Blue	North_America	USA	New_York	-76.72495	42.617016	6.83	0.229182601	50.14164306	goat	N
11488.CSB719	natural	blue	Lively_Run_Cayuga_Blue	North_America	USA	New_York	-76.72495	42.617016	7.02	0.255608679	39.82808023	goat	N
11488.CSB720	natural	blue	Lively_Run_Cayuga_Blue	North_America	USA	New_York	-76.72495	42.617016	7.23	0.206612879	50.21432945	goat	N
11488.CSB721	natural	NA	Appalachia	North_America	USA	Virginia	-80.945531	36.572992	7.25	0.059547884	38.40304183	cow	N
11488.CSB722	natural	NA	Appalachia	North_America	USA	Virginia	-80.945531	36.572992	7.35	0.064275002	50.11547344	cow	N
11488.CSB723	natural	NA	Appalachia	North_America	USA	Virginia	-80.945531	36.572992	7.23	0.06186631	42.46823956	cow	N
11488.CSB724	natural	NA	5-spoke_creamery	North_America	USA	Pennslyvania	-74.324319	41.402038	6.59	0.090642745	39.46488294	cow	N
11488.CSB725	natural	NA	5-spoke_creamery	North_America	USA	Pennslyvania	-74.324319	41.402038	6.37	0.085829399	37.6344086	cow	N
11488.CSB726	natural	NA	5-spoke_creamery	North_America	USA	Pennslyvania	-74.324319	41.402038	7	0.095726025	42.52553389	cow	N
11488.CSB755	washed	NA	Slyboro	North_America	USA	Vermont	-72.577841	44.558803	6.52	0.074884793	57.85907859	goat	N
11488.CSB727	natural	blue	Berkshire_blue	North_America	USA	Massachusetts	-73.166667	42.473611	6.85	0.136477284	35.26119403	cow	N
11488.CSB728	natural	blue	Berkshire_blue	North_America	USA	Massachusetts	-73.166667	42.473611	7.06	0.106182826	43.14800313	cow	N
11488.CSB729	natural	blue	Berkshire_blue	North_America	USA	Massachusetts	-73.166667	42.473611	6.88	0.134261433	37.7388535	cow	N
11488.CSB733	natural	NA	Ben_Nevis	North_America	USA	Vermont	-72.317881	44.666446	6.35	0.081271654	31.34328358	sheep	N
11488.CSB734	natural	NA	Ben_Nevis	North_America	USA	Vermont	-72.317881	44.666446	6.82	0.117140976	36.44366197	sheep	N
11488.CSB735	natural	NA	Ben_Nevis	North_America	USA	Vermont	-72.317881	44.666446	6.47	0.090642745	34.73473473	sheep	N
11488.CSB736	washed	alpine	Olga	North_America	USA	Maine	-68.307862	44.490419	7.65	0.116503545	39.05496625	cow_goat	N
11488.CSB737	washed	alpine	Olga	North_America	USA	Maine	-68.307862	44.490419	7.5	0.193517844	40.39855072	cow_goat	N
11488.CSB738	washed	alpine	Olga	North_America	USA	Maine	-68.307862	44.490419	7.59	0.154726042	41.59836066	cow_goat	N
11488.CSB739	natural	NA	Ooray	North_America	USA	New_York	-73.818025	41.652617	6.9	0.152213903	27.74509804	cow	N
11488.CSB740	natural	NA	Ooray	North_America	USA	New_York	-73.818025	41.652617	7.28	0.108525819	30.92948718	cow	N
11488.CSB741	natural	NA	Ooray	North_America	USA	New_York	-73.818025	41.652617	7.33	0.089658951	32.51387787	cow	N
11488.CSB742	natural	NA	Queso_Invierno	North_America	USA	Vermont	-72.521724	42.975268	6.48	0.197787941	24.19127989	cow_sheep	N
11488.CSB743	natural	NA	Queso_Invierno	North_America	USA	Vermont	-72.521724	42.975268	6.66	0.172566849	29.22732363	cow_sheep	N
11488.CSB744	natural	NA	Queso_Invierno	North_America	USA	Vermont	-72.521724	42.975268	6.65	0.160750117	28.07377049	cow_sheep	N
11488.CSB748	bloomy	NA	Pipe_dream_buche	North_America	USA	Pennsylvania	-85.986359	38.372564	6.34	0.124387148	55.25238745	goat	Y
11488.CSB749	bloomy	NA	Pipe_dream_buche	North_America	USA	Pennsylvania	-85.986359	38.372564	6.24	0.107935268	52.20883534	goat	Y
11488.CSB750	bloomy	NA	Pipe_dream_buche	North_America	USA	Pennsylvania	-85.986359	38.372564	6.38	0.097305888	48.48484848	goat	Y
11488.CSB754	washed	NA	Slyboro	North_America	USA	Vermont	-72.577841	44.558803	6.95	0.064275002	52.3216308	goat	N
11488.CSB756	washed	NA	Slyboro	North_America	USA	Vermont	-72.577841	44.558803	6.73	0.05486822	52.56410256	goat	N
11488.CSB758	washed	NA	Dorset	North_America	USA	Vermont	-72.577841	44.558803	7.67	0.063577391	53.5321821	cow	N
11488.CSB759	washed	NA	Dorset	North_America	USA	Vermont	-72.577841	44.558803	7.67	0.099453005	52.62626263	cow	N
11488.CSB760	washed	NA	Hudson_red	North_America	USA	New_York	-73.615673	42.329253	7.65	0.066777473	49.85673352	cow	N
11488.CSB761	washed	NA	Hudson_red	North_America	USA	New_York	-73.615673	42.329253	7.86	0.056385749	27.77777778	cow	N
11488.CSB762	washed	NA	Hudson_red	North_America	USA	New_York	-73.615673	42.329253	7.58	0.074884793	57.28744939	cow	N
11488.CSB763	washed	NA	Mt._St._Francis	North_America	USA	Indiana	-85.986359	38.372564	6.92	0.22669516	37.26937269	goat	N
11488.CSB764	washed	NA	Mt._St._Francis	North_America	USA	Indiana	-85.986359	38.372564	6.38	0.175414892	49.12718204	goat	N
11488.CSB765	washed	NA	Mt._St._Francis	North_America	USA	Indiana	-85.986359	38.372564	6.67	0.107935268	40.39408867	goat	N
11488.CSB769	washed	alpine	Tarentaise	North_America	USA	Vermont	-72.596389	43.494167	8.26	0.130237553	37.5	cow	N
11488.CSB770	washed	alpine	Tarentaise	North_America	USA	Vermont	-72.596389	43.494167	8.26	0.223322763	33.92330383	cow	N
11488.CSB771	washed	alpine	Tarentaise	North_America	USA	Vermont	-72.596389	43.494167	8.26	0.132361637	40.71146245	cow	N
11488.CSB860	washed	NA	Pawlet	North_America	USA	Vermont	-72.577841	44.558803	7.74	0.094171813	38.50931677	cow	N
11488.CSB861	washed	NA	Pawlet	North_America	USA	Vermont	-72.577841	44.558803	7.55	0.111527395	43.60465116	cow	N
11488.CSB862	washed	NA	Pawlet	North_America	USA	Vermont	-72.577841	44.558803	7.59	0.102203648	40.42838019	cow	N
11488.CSB863	washed	NA	Manigodine	Europe	France	Savoie	6.369137	45.861224	7.59	0.195641243	58.82352941	cow	N
11488.CSB864	washed	NA	Manigodine	Europe	France	Savoie	6.369137	45.861224	7.45	0.148927717	55.91397849	cow	N
11488.CSB865	washed	NA	Manigodine	Europe	France	Savoie	6.369137	45.861224	7.65	0.135734633	58.52417303	cow	N
11488.CSB866	natural	NA	Blue_de_Basque	Europe	France	Pyrenees	-0.299578	44.700222	6.73	0.096776391	45.68372804	sheep	Y
11488.CSB867	natural	NA	Blue_de_Basque	Europe	France	Pyrenees	-0.299578	44.700222	6.69	0.167008733	38.71391076	sheep	Y
11488.CSB868	washed	NA	Pata_Cabra	Europe	Spain	Aragon	-0.905662	41.597628	7.2	0.140251934	36.61593554	goat	Y
11488.CSB869	washed	NA	Pata_Cabra	Europe	Spain	Aragon	-0.905662	41.597628	7.05	0.111527395	31.81818182	goat	Y
11488.CSB870	washed	NA	Pata_Cabra	Europe	Spain	Aragon	-0.905662	41.597628	7.2	0.105030367	30.56930693	goat	Y
11488.CSB871	washed	alpine	Challerhocker	Europe	Switzerland	Tufertschwil	9.366667	47.416667	7.94	0.140251934	38.19444444	cow	Y
11488.CSB872	washed	alpine	Challerhocker	Europe	Switzerland	Tufertschwil	9.366667	47.416667	7.84	0.123037108	38.2629108	cow	Y
11488.CSB873	washed	alpine	Challerhocker	Europe	Switzerland	Tufertschwil	9.366667	47.416667	7.86	0.116503545	34.36170213	cow	Y
11488.CSB874	washed	alpine	Pardou_Ardi_Gasna	Europe	France	Pyrenees	-0.426274	42.987644	7.32	0.121701721	30.46789989	sheep	N
11488.CSB875	washed	alpine	Pardou_Ardi_Gasna	Europe	France	Pyrenees	-0.426274	42.987644	6.95	0.107935268	25.2900232	sheep	N
11488.CSB876	washed	alpine	Pardou_Ardi_Gasna	Europe	France	Pyrenees	-0.426274	42.987644	7.18	0.131362827	32.85509326	sheep	N
11488.CSB877	natural	NA	Vendeen_Bichonne	Europe	France	Pays_de_la_Loire	-0.329969	47.763284	7	0.106763789	43.01075269	cow	Y
11488.CSB878	natural	NA	Vendeen_Bichonet	Europe	France	Pays_de_la_Loire	-0.329969	47.763284	6.92	0.109716632	40.6504065	cow	Y
11488.CSB880	natural	NA	Robiola_della_Spazza_Camino	Europe	Italy	Valle_Vigezzo	8.4553	46.13293	7.3	0.098911824	46.91943128	goat	Y
11488.CSB881	natural	NA	Robiola_della_Spazza_Camino	Europe	Italy	Valle_Vigezzo	8.4553	46.13293	7.21	0.070138627	45.36213469	goat	Y
11488.CSB882	natural	NA	Robiola_della_Spazza_Camino	Europe	Italy	Valle_Vigezzo	8.4553	46.13293	7	0.057629937	47.32061762	goat	Y
11488.CSB883	natural	NA	Pecorino_Sasso	Europe	Italy	Abruzzo	13.728917	42.192012	7.11	0.098911824	45.03239741	sheep	N
11488.CSB884	natural	NA	Pecorino_Sasso	Europe	Italy	Abruzzo	13.728917	42.192012	6.72	0.095205125	46.43908181	sheep	N
11488.CSB885	natural	NA	Pecorino_Sasso	Europe	Italy	Abruzzo	13.728917	42.192012	6.5	0.098373588	42.69819193	sheep	N
11488.CSB886	natural	NA	Pecorino_Caggiano	Europe	Italy	Basilicata	15.969988	40.643077	6.3	0.154726042	29.59381044	sheep	N
11488.CSB887	natural	NA	Pecorino_Caggiano	Europe	Italy	Basilicata	15.969988	40.643077	6.55	0.137223998	28.47985348	sheep	N
11488.CSB888	natural	NA	Pecorino_Caggiano	Europe	Italy	Basilicata	15.969988	40.643077	6.17	0.186265805	27.32362822	sheep	N
11488.CSB889	natural	NA	Pecorino_di_Pienza_Riserva_Morchiato	Europe	Italy	Tuscany	11.684059	43.057875	6.8	0.084897847	32.50773994	sheep	N
11488.CSB890	natural	NA	Pecorino_di_Pienza_Riserva_Morchiato	Europe	Italy	Tuscany	11.684059	43.057875	6.63	0.099997146	36.08074012	sheep	N
11488.CSB892	natural	NA	Twig_Goat_Tomme	North_America	USA	Vermont	-73.232052	43.906992	7.25	0.109716632	47.09418838	goat	N
11488.CSB893	natural	NA	Twig_Goat_Tomme	North_America	USA	Vermont	-73.232052	43.906992	7.25	0.093149717	46.73423423	goat	N
11488.CSB894	natural	NA	Twig_Goat_Tomme	North_America	USA	Vermont	-73.232052	43.906992	7.31	0.11523907	43.58974359	goat	N
11488.CSB895	washed	alpine	Formaggella_Camuna	Europe	Italy	Lombardy	10.268982	45.943218	7.53	0.060861846	59.7080292	cow	N
11488.CSB896	washed	alpine	Formaggella_Camuna	Europe	Italy	Lombardy	10.268982	45.943218	7.44	0.070138627	64.12037037	cow	N
11488.CSB897	washed	alpine	Formaggella_Camuna	Europe	Italy	Lombardy	10.268982	45.943218	7.29	0.058581062	64.55696203	cow	N
11488.CSB898	natural	NA	Ekiola_Ardi_Gasna	Europe	France	Pyrenees	-0.753281	43.326994	6.63	0.104458837	27.06766917	sheep	N
11488.CSB899	natural	NA	Ekiola_Ardi_Gasna	Europe	France	Pyrenees	-0.753281	43.326994	7.01	0.074884793	32.47978437	sheep	N
11488.CSB900	natural	NA	Ekiola_Ardi_Gasna	Europe	France	Pyrenees	-0.753281	43.326994	6.57	0.080389569	29.27018634	sheep	N
11488.CSB901	natural	NA	Toma_di_Gressoney	Europe	France	Aosta	7.426187	45.738888	7.55	0.038067217	47.5	cow	N
11488.CSB902	natural	NA	Toma_di_Gressoney	Europe	France	Aosta	7.426187	45.738888	7.52	0.037654053	46.2633452	cow	N
11488.CSB903	natural	NA	Toma_di_Gressoney	Europe	France	Aosta	7.426187	45.738888	7.38	0.042922447	47.25363489	cow	N
11488.CSB904	natural	NA	Twig_Seasonal	North_America	USA	Vermont	-73.232052	43.906992	7.46	0.101647499	40.3903016	cow	N
11488.CSB905	natural	NA	Twig_Seasonal	North_America	USA	Vermont	-73.232052	43.906992	7.18	0.166099943	29.75929978	cow	N
11488.CSB906	washed	alpine	Tomette_Brebis_Basquaise__Azkorria_	Europe	France	Aquitaine	-0.965383	43.196647	6.37	0.132804222	41.91866528	sheep	N
11488.CSB907	washed	alpine	Tomette_Brebis_Basquaise__Azkorria_	Europe	France	Aquitaine	-0.965383	43.196647	6.15	0.104458837		sheep	N
11488.CSB908	washed	alpine	Tomette_Brebis_Basquaise__Azkorria_	Europe	France	Aquitaine	-0.965383	43.196647	6.24	0.095205125		sheep	N
11488.CSB909	natural	NA	Toma_Ala	Europe	Italy	Piedmont	7.520394	45.272547	7.01	0.07366896	42.80487805	cow	N
11488.CSB910	natural	NA	Toma_Ala	Europe	Italy	Piedmont	7.520394	45.272547	7.42	0.043869559	46.50388457	cow	N
11488.CSB911	natural	NA	Toma_Ala	Europe	Italy	Piedmont	7.520394	45.272547	7.38	0.055168423	46.00725953	cow	N
11488.CSB912	washed	NA	Chevre_du_Haut_Bearn	Europe	France	Pyrenees	-0.753281	43.326994	6.72	0.031278219	38.1342701	goat	N
11488.CSB914	washed	NA	Chevre_du_Haut_Bearn	Europe	France	Pyrenees	-0.753281	43.326994	6.66	0.040422	31.65969317	goat	N
11488.CSB916	washed	NA	Abondance	Europe	France	Rhone-Alpes	6.538962	46.175679	6.97	0.243359507	34.83483483	cow	N
11488.CSB917	washed	NA	Abondance	Europe	France	Rhone-Alpes	6.538962	46.175679	7.03	0.18728493	40	cow	N
11488.CSB920	bloomy	NA	Chevrot	Europe	France	Loire	-0.213111	46.260198	6.04	0.040865536	68.73184898	goat	Y
11488.CSB923	bloomy	NA	Camembert_Le_Chatelain	Europe	France	Normandy	-0.598238	47.809293	7.16	0.055168423	68.01242236	cow	Y
11488.CSB930	bloomy	NA	Robiola_due_Latti	Europe	Italy	Piedmont	8.027565	44.911974	6.88	0.070908232	59.59079284	sheep	Y
11488.CSB931	bloomy	NA	Robiola_due_Latti	Europe	Italy	Piedmont	8.027565	44.911974	6.64	0.051671872	65.70438799	sheep	Y
11488.CSB932	bloomy	NA	Robiola_due_Latti	Europe	Italy	Piedmont	8.027565	44.911974	6.74	0.058262289	67.36972705	sheep	Y
11488.CSB936	washed	NA	U_Bel_Fiuritu	Europe	France	Corsica	9.173558	42.233893	7.02	0.132804222	61.78797468	sheep	N
11488.CSB937	washed	NA	U_Bel_Fiuritu	Europe	France	Corsica	9.173558	42.233893	7.57	0.110920511	60.58897243	sheep	N
11488.CSB938	washed	NA	U_Bel_Fiuritu	Europe	France	Corsica	9.173558	42.233893	7.49	0.093659371	59.67859752	sheep	N
11488.CSB940	washed	NA	Cappuccetto_Rosso	Europe	Italy	Piedmont	8.290584	45.711075	6.45	0.07366896	55.13016845	cow	Y
11488.CSB941	washed	NA	Cappuccetto_Rosso	Europe	Italy	Piedmont	8.290584	45.711075	6.24	0.071686281	52.51752709	cow	Y
11488.CSB942	washed	NA	Brigid_s_Abbey	North_America	USA	Connecticut	-72.388511	41.573581	7.52	0.2043704	50.34079844	cow	N
11488.CSB943	washed	NA	Brigid_s_Abbey	North_America	USA	Connecticut	-72.388511	41.573581	7.34	0.175414892	45.96774194	cow	N
11488.CSB944	washed	NA	Brigid_s_Abbey	North_America	USA	Connecticut	-72.388511	41.573581	7.33	0.129937077	45.10385757	cow	N
11488.CSB945	natural	NA	Tekenik_Tomme	North_America	USA	Massachusetts	-72.200845	42.379405	6.29	0.2460298	27.98833819	cow	N
11488.CSB946	natural	NA	Tekenik_Tomme	North_America	USA	Massachusetts	-72.200845	42.379405	6.08	0.301069336	36.41025641	cow	N
11488.CSB947	natural	NA	Tekenik_Tomme	North_America	USA	Massachusetts	-72.200845	42.379405	6.38	0.163403138	25.06437768	cow	N
11488.CSB948	washed	NA	Rush_Creek_Reserve	North_America	USA	Wisconsin	-90.130124	42.960274	7.23	0.068999853	62.60938743	cow	N
11488.CSB949	washed	NA	Rush_Creek_Reserve	North_America	USA	Wisconsin	-90.130124	42.960274	7.23	0.069377375	55.68544102	cow	N
11488.CSB950	washed	NA	Rush_Creek_Reserve	North_America	USA	Wisconsin	-90.130124	42.960274	7.18	0.069756963	60.26080988	cow	N
11488.CSB957	washed	NA	Off_Kilter	North_America	USA	Washington	-122.793211	48.102677	6.62	0.150561845	60.25554808	cow	N
11488.CSB958	washed	NA	Off_Kilter	North_America	USA	Washington	-122.793211	48.102677	6.72	0.134261433	66.10845295	cow	Y
11488.CSB959	washed	NA	Off_Kilter	North_America	USA	Washington	-122.793211	48.102677	6.56	0.127827413	62.96296296	cow	Y
11488.CSB960	natural	NA	Elk_Mountain	North_America	USA	Oregon	-123.191383	42.54961	7.6	0.037042701	59.20826162	goat	Y
11488.CSB961	natural	NA	Elk_Mountain	North_America	USA	Oregon	-123.191383	42.54961	7.39	0.040422	54.31878896	goat	N
11488.CSB962	natural	NA	Elk_Mountain	North_America	USA	Oregon	-123.191383	42.54961	6.87	0.097305888	35.99182004	goat	N
11488.CSB979	natural	blue	Dunbarton_Blue	North_America	USA	Wisconsin	-90.23096	42.573335	6.94	0.11523907	23.57229648	cow	Y
11488.CSB980	natural	blue	Dunbarton_Blue	North_America	USA	Wisconsin	-90.23096	42.573335	7.02	0.134996023	28.20512821	cow	Y
11488.CSB981	natural	blue	Dunbarton_Blue	North_America	USA	Wisconsin	-90.23096	42.573335	7.09	0.102762839	25.76153177	cow	Y
11488.CSB984	natural	clothbound	Bandaged_Cheddar	North_America	USA	Wisconsin	-90.23096	42.573335	7.41	0.285081837	28.84012539	cow	Y
11488.CSB985	washed	alpine	Alpine_Renegade	North_America	USA	Wisconsin	-89.832345	43.017497	7.06	0.109716632	24.9661705	cow	N
11488.CSB986	washed	alpine	Alpine_Renegade	North_America	USA	Wisconsin	-89.832345	43.017497	6.86	0.083519442	40.78212291	cow	N
